start=new Date('2022-12-16T00:00:00.000Z').valueOf();
sats=[{"CLASSIFICATION_TYPE":"U","MEAN_ANOMALY":"311.5826","TIME_SYSTEM":"UTC","RCS_SIZE":"LARGE","MEAN_MOTION":"15.06401429","OBJECT_ID":"2019-074L","ECCENTRICITY":"0.00015620","TLE_LINE1":"1 44723U 19074L   22349.53720895  .00002239  00000-0  16918-3 0  9994","LAUNCH_DATE":"2019-11-11","MEAN_ELEMENT_THEORY":"SGP4","PERIAPSIS":"546.127","INCLINATION":"53.0542","PERIOD":"95.592","RA_OF_ASC_NODE":"84.5286","MEAN_MOTION_DDOT":"0.0000000000000","SITE":"AFETR","SEMIMAJOR_AXIS":"6925.344","ELEMENT_SET_NO":"999","EPOCH":"2022-12-15T12:53:34.853280","BSTAR":"0.00016918000000","OBJECT_NAME":"STARLINK-1017","REV_AT_EPOCH":"17104","EPHEMERIS_TYPE":"0","ARG_OF_PERICENTER":"48.5296","DECAY_DATE":null,"APOAPSIS":"548.291","MEAN_MOTION_DOT":"0.00002239","FILE":"3702702","TLE_LINE2":"2 44723  53.0542  84.5286 0001562  48.5296 311.5826 15.06401429171043","GP_ID":"220505080","OBJECT_TYPE":"PAYLOAD","CENTER_NAME":"EARTH","COUNTRY_CODE":"US","NORAD_CAT_ID":"44723","REF_FRAME":"TEME"},{"CENTER_NAME":"EARTH","COUNTRY_CODE":"US","REF_FRAME":"TEME","NORAD_CAT_ID":"44724","OBJECT_TYPE":"PAYLOAD","GP_ID":"220524224","TLE_LINE2":"2 44724  53.0533  83.8035 0001683  61.6988 298.4171 15.06400252170897","REV_AT_EPOCH":"17089","EPHEMERIS_TYPE":"0","ARG_OF_PERICENTER":"61.6988","FILE":"3702726","MEAN_MOTION_DOT":"0.00001180","DECAY_DATE":null,"APOAPSIS":"548.378","SEMIMAJOR_AXIS":"6925.348","ELEMENT_SET_NO":"999","BSTAR":"0.00009809900000","OBJECT_NAME":"STARLINK-1019","EPOCH":"2022-12-15T16:47:07.506816","PERIOD":"95.592","RA_OF_ASC_NODE":"83.8035","MEAN_MOTION_DDOT":"0.0000000000000","SITE":"AFETR","INCLINATION":"53.0533","MEAN_ELEMENT_THEORY":"SGP4","PERIAPSIS":"546.047","RCS_SIZE":"LARGE","MEAN_MOTION":"15.06400252","ECCENTRICITY":"0.00016830","TLE_LINE1":"1 44724U 19074M   22349.69939244  .00001180  00000-0  98099-4 0  9997","LAUNCH_DATE":"2019-11-11","OBJECT_ID":"2019-074M","MEAN_ANOMALY":"298.4171","CLASSIFICATION_TYPE":"U","TIME_SYSTEM":"UTC"},{"MEAN_ELEMENT_THEORY":"SGP4","PERIAPSIS":"546.394","INCLINATION":"53.0549","PERIOD":"95.593","RA_OF_ASC_NODE":"103.7870","SITE":"AFETR","MEAN_MOTION_DDOT":"0.0000000000000","CLASSIFICATION_TYPE":"U","MEAN_ANOMALY":"294.8306","TIME_SYSTEM":"UTC","MEAN_MOTION":"15.06391464","RCS_SIZE":"LARGE","OBJECT_ID":"2019-074N","ECCENTRICITY":"0.00012210","TLE_LINE1":"1 44725U 19074N   22349.70493405 -.00000166  00000-0  77641-5 0  9999","LAUNCH_DATE":"2019-11-11","TLE_LINE2":"2 44725  53.0549 103.7870 0001221  65.2810 294.8306 15.06391464170610","GP_ID":"220524474","OBJECT_TYPE":"PAYLOAD","CENTER_NAME":"EARTH","COUNTRY_CODE":"US","NORAD_CAT_ID":"44725","REF_FRAME":"TEME","SEMIMAJOR_AXIS":"6925.375","ELEMENT_SET_NO":"999","EPOCH":"2022-12-15T16:55:06.301920","BSTAR":"0.00000776410000","OBJECT_NAME":"STARLINK-1020","REV_AT_EPOCH":"17061","EPHEMERIS_TYPE":"0","ARG_OF_PERICENTER":"65.2810","APOAPSIS":"548.085","DECAY_DATE":null,"FILE":"3702726","MEAN_MOTION_DOT":"-0.00000166"},{"TIME_SYSTEM":"UTC","CLASSIFICATION_TYPE":"U","MEAN_ANOMALY":"308.0061","OBJECT_ID":"2019-074P","TLE_LINE1":"1 44726U 19074P   22349.69571212  .00000164  00000-0  29941-4 0  9997","LAUNCH_DATE":"2019-11-11","ECCENTRICITY":"0.00017650","MEAN_MOTION":"15.06390315","RCS_SIZE":"LARGE","PERIAPSIS":"546.021","MEAN_ELEMENT_THEORY":"SGP4","INCLINATION":"53.0549","MEAN_MOTION_DDOT":"0.0000000000000","SITE":"AFETR","RA_OF_ASC_NODE":"83.8095","PERIOD":"95.593","EPOCH":"2022-12-15T16:41:49.527168","OBJECT_NAME":"STARLINK-1021","BSTAR":"0.00002994100000","ELEMENT_SET_NO":"999","SEMIMAJOR_AXIS":"6925.378","APOAPSIS":"548.466","DECAY_DATE":null,"FILE":"3702726","MEAN_MOTION_DOT":"0.00000164","EPHEMERIS_TYPE":"0","ARG_OF_PERICENTER":"52.1087","REV_AT_EPOCH":"17089","TLE_LINE2":"2 44726  53.0549  83.8095 0001765  52.1087 308.0061 15.06390315170892","GP_ID":"220525724","OBJECT_TYPE":"PAYLOAD","NORAD_CAT_ID":"44726","REF_FRAME":"TEME","CENTER_NAME":"EARTH","COUNTRY_CODE":"US"},{"EPHEMERIS_TYPE":"0","ARG_OF_PERICENTER":"64.0632","REV_AT_EPOCH":"17037","MEAN_MOTION_DOT":"0.00000346","FILE":"3702726","APOAPSIS":"548.189","DECAY_DATE":null,"ELEMENT_SET_NO":"999","SEMIMAJOR_AXIS":"6925.358","OBJECT_NAME":"STARLINK-1022","BSTAR":"0.00004215100000","EPOCH":"2022-12-15T20:44:36.690720","COUNTRY_CODE":"US","CENTER_NAME":"EARTH","REF_FRAME":"TEME","NORAD_CAT_ID":"44727","OBJECT_TYPE":"PAYLOAD","GP_ID":"220525974","TLE_LINE2":"2 44727  53.0540 123.0693 0001396  64.0632 296.0500 15.06397069170373","MEAN_MOTION":"15.06397069","RCS_SIZE":"LARGE","ECCENTRICITY":"0.00013960","TLE_LINE1":"1 44727U 19074Q   22349.86431355  .00000346  00000-0  42151-4 0  9990","LAUNCH_DATE":"2019-11-11","OBJECT_ID":"2019-074Q","MEAN_ANOMALY":"296.0500","CLASSIFICATION_TYPE":"U","TIME_SYSTEM":"UTC","PERIOD":"95.592","RA_OF_ASC_NODE":"123.0693","MEAN_MOTION_DDOT":"0.0000000000000","SITE":"AFETR","INCLINATION":"53.0540","MEAN_ELEMENT_THEORY":"SGP4","PERIAPSIS":"546.256"},{"MEAN_MOTION_DOT":"0.00045521","FILE":"3702025","APOAPSIS":"502.528","DECAY_DATE":null,"REV_AT_EPOCH":"17089","EPHEMERIS_TYPE":"0","ARG_OF_PERICENTER":"242.5717","BSTAR":"0.00201030000000","OBJECT_NAME":"STARLINK-1024","EPOCH":"2022-12-15T12:50:57.817824","SEMIMAJOR_AXIS":"6880.008","ELEMENT_SET_NO":"999","REF_FRAME":"TEME","NORAD_CAT_ID":"44729","COUNTRY_CODE":"US","CENTER_NAME":"EARTH","OBJECT_TYPE":"PAYLOAD","TLE_LINE2":"2 44729  53.0052  79.7707 0000952 242.5717 117.5181 15.21315691170897","GP_ID":"220485367","TLE_LINE1":"1 44729U 19074S   22349.53539141  .00045521  00000-0  20103-2 0  9993","ECCENTRICITY":"0.00009520","LAUNCH_DATE":"2019-11-11","OBJECT_ID":"2019-074S","MEAN_MOTION":"15.21315691","RCS_SIZE":"LARGE","TIME_SYSTEM":"UTC","MEAN_ANOMALY":"117.5181","CLASSIFICATION_TYPE":"U","SITE":"AFETR","MEAN_MOTION_DDOT":"0.0000000000000","PERIOD":"94.655","RA_OF_ASC_NODE":"79.7707","INCLINATION":"53.0052","MEAN_ELEMENT_THEORY":"SGP4","PERIAPSIS":"501.218"},{"PERIOD":"95.592","RA_OF_ASC_NODE":"84.6693","MEAN_MOTION_DDOT":"0.0000000000000","SITE":"AFETR","INCLINATION":"53.0548","MEAN_ELEMENT_THEORY":"SGP4","PERIAPSIS":"546.040","RCS_SIZE":"LARGE","MEAN_MOTION":"15.06404651","TLE_LINE1":"1 44731U 19074U   22349.50772318  .00000993  00000-0  85542-4 0  9992","LAUNCH_DATE":"2019-11-11","ECCENTRICITY":"0.00016740","OBJECT_ID":"2019-074U","MEAN_ANOMALY":"322.2169","CLASSIFICATION_TYPE":"U","TIME_SYSTEM":"UTC","COUNTRY_CODE":"US","CENTER_NAME":"EARTH","REF_FRAME":"TEME","NORAD_CAT_ID":"44731","OBJECT_TYPE":"PAYLOAD","GP_ID":"220485616","TLE_LINE2":"2 44731  53.0548  84.6693 0001674  37.8938 322.2169 15.06404651170867","REV_AT_EPOCH":"17086","ARG_OF_PERICENTER":"37.8938","EPHEMERIS_TYPE":"0","FILE":"3702025","MEAN_MOTION_DOT":"0.00000993","DECAY_DATE":null,"APOAPSIS":"548.359","SEMIMAJOR_AXIS":"6925.334","ELEMENT_SET_NO":"999","BSTAR":"0.00008554200000","OBJECT_NAME":"STARLINK-1026","EPOCH":"2022-12-15T12:11:07.282752"},{"SITE":"AFETR","MEAN_MOTION_DDOT":"0.0000000000000","PERIOD":"95.592","RA_OF_ASC_NODE":"104.4289","INCLINATION":"53.0548","PERIAPSIS":"546.188","MEAN_ELEMENT_THEORY":"SGP4","LAUNCH_DATE":"2019-11-11","TLE_LINE1":"1 44732U 19074V   22349.56116825  .00001043  00000-0  88923-4 0  9997","ECCENTRICITY":"0.00014930","OBJECT_ID":"2019-074V","MEAN_MOTION":"15.06397141","RCS_SIZE":"LARGE","TIME_SYSTEM":"UTC","MEAN_ANOMALY":"305.0752","CLASSIFICATION_TYPE":"U","REF_FRAME":"TEME","NORAD_CAT_ID":"44732","CENTER_NAME":"EARTH","COUNTRY_CODE":"US","OBJECT_TYPE":"PAYLOAD","GP_ID":"220502361","TLE_LINE2":"2 44732  53.0548 104.4289 0001493  55.0377 305.0752 15.06397141170769","FILE":"3702584","MEAN_MOTION_DOT":"0.00001043","APOAPSIS":"548.256","DECAY_DATE":null,"REV_AT_EPOCH":"17076","ARG_OF_PERICENTER":"55.0377","EPHEMERIS_TYPE":"0","BSTAR":"0.00008892300000","OBJECT_NAME":"STARLINK-1027","EPOCH":"2022-12-15T13:28:04.936800","SEMIMAJOR_AXIS":"6925.357","ELEMENT_SET_NO":"999"},{"REV_AT_EPOCH":"17087","ARG_OF_PERICENTER":"61.9972","EPHEMERIS_TYPE":"0","MEAN_MOTION_DOT":"0.00002844","FILE":"3702025","APOAPSIS":"548.180","DECAY_DATE":null,"SEMIMAJOR_AXIS":"6925.381","ELEMENT_SET_NO":"999","BSTAR":"0.00020982000000","OBJECT_NAME":"STARLINK-1028","EPOCH":"2022-12-15T13:25:25.860576","CENTER_NAME":"EARTH","COUNTRY_CODE":"US","REF_FRAME":"TEME","NORAD_CAT_ID":"44733","OBJECT_TYPE":"PAYLOAD","TLE_LINE2":"2 44733  53.0533  84.4188 0001350  61.9972 298.1153 15.06389558170870","GP_ID":"220484117","MEAN_MOTION":"15.06389558","RCS_SIZE":"LARGE","ECCENTRICITY":"0.00013500","TLE_LINE1":"1 44733U 19074W   22349.55932709  .00002844  00000-0  20982-3 0  9994","LAUNCH_DATE":"2019-11-11","OBJECT_ID":"2019-074W","MEAN_ANOMALY":"298.1153","CLASSIFICATION_TYPE":"U","TIME_SYSTEM":"UTC","PERIOD":"95.593","RA_OF_ASC_NODE":"84.4188","SITE":"AFETR","MEAN_MOTION_DDOT":"0.0000000000000","INCLINATION":"53.0533","MEAN_ELEMENT_THEORY":"SGP4","PERIAPSIS":"546.311"},{"MEAN_MOTION":"15.06409284","RCS_SIZE":"LARGE","ECCENTRICITY":"0.00017320","TLE_LINE1":"1 44734U 19074X   22349.77310160  .00001425  00000-0  11451-3 0  9995","LAUNCH_DATE":"2019-11-11","OBJECT_ID":"2019-074X","MEAN_ANOMALY":"318.9702","CLASSIFICATION_TYPE":"U","TIME_SYSTEM":"UTC","PERIOD":"95.592","RA_OF_ASC_NODE":"3.4740","SITE":"AFETR","MEAN_MOTION_DDOT":"0.0000000000000","INCLINATION":"53.0531","MEAN_ELEMENT_THEORY":"SGP4","PERIAPSIS":"545.986","EPHEMERIS_TYPE":"0","ARG_OF_PERICENTER":"41.1417","REV_AT_EPOCH":"17200","FILE":"3702726","MEAN_MOTION_DOT":"0.00001425","DECAY_DATE":null,"APOAPSIS":"548.385","ELEMENT_SET_NO":"999","SEMIMAJOR_AXIS":"6925.320","OBJECT_NAME":"STARLINK-1029","BSTAR":"0.00011451000000","EPOCH":"2022-12-15T18:33:15.978240","CENTER_NAME":"EARTH","COUNTRY_CODE":"US","REF_FRAME":"TEME","NORAD_CAT_ID":"44734","OBJECT_TYPE":"PAYLOAD","TLE_LINE2":"2 44734  53.0531   3.4740 0001732  41.1417 318.9702 15.06409284172009","GP_ID":"220524225"}];
